{
  "type": "FeatureCollection",
  "features": [
    {
      "type": "Feature",
      "properties": {
        "norad_id": 54741,
        "name": "GALAXY 35 (G-35)",
        "group": "intelsat",
        "lat": 0.009852572907277693,
        "lon": -31.22403448273217,
        "alt_km": 35781.29782685873,
        "timestamp": "2025-12-11T22:43:46.940004+00:00",
        "meta_object_name": "GALAXY 35 (G-35)",
        "meta_object_id": "2022-170A",
        "meta_epoch": "2025-12-11T13:04:10.103232",
        "meta_mean_motion": 1.00271246,
        "meta_eccentricity": 0.00025278,
        "meta_inclination": 0.0151,
        "meta_ra_of_asc_node": 264.5211,
        "meta_arg_of_pericenter": 1.8922,
        "meta_mean_anomaly": 277.0423,
        "meta_ephemeris_type": 0,
        "meta_classification_type": "U",
        "meta_norad_cat_id": 54741,
        "meta_element_set_no": 999,
        "meta_rev_at_epoch": 1101,
        "meta_bstar": 0,
        "meta_mean_motion_dot": -1.55e-06,
        "meta_mean_motion_ddot": 0,
        "tle_line1": "1 54741U 22170A   25345.54456138 -.00000155  00000+0  00000+0 0  9998",
        "tle_line2": "2 54741   0.0151 264.5211 0002527   1.8922 277.0423  1.00271246 11010"
      },
      "geometry": {
        "type": "Point",
        "coordinates": [
          -31.22403448273217,
          0.009852572907277693
        ]
      }
    },
    {
      "type": "Feature",
      "properties": {
        "norad_id": 54742,
        "name": "GALAXY 36 (G-36)",
        "group": "intelsat",
        "lat": -0.008051617511127694,
        "lon": -27.153534261681433,
        "alt_km": 35784.82679751641,
        "timestamp": "2025-12-11T22:43:46.940016+00:00",
        "meta_object_name": "GALAXY 36 (G-36)",
        "meta_object_id": "2022-170B",
        "meta_epoch": "2025-12-11T13:05:17.495232",
        "meta_mean_motion": 1.00272293,
        "meta_eccentricity": 3.999e-05,
        "meta_inclination": 0.015,
        "meta_ra_of_asc_node": 77.5837,
        "meta_arg_of_pericenter": 207.9216,
        "meta_mean_anomaly": 262.3232,
        "meta_ephemeris_type": 0,
        "meta_classification_type": "U",
        "meta_norad_cat_id": 54742,
        "meta_element_set_no": 999,
        "meta_rev_at_epoch": 1089,
        "meta_bstar": 0,
        "meta_mean_motion_dot": -1.78e-06,
        "meta_mean_motion_ddot": 0,
        "tle_line1": "1 54742U 22170B   25345.54534138 -.00000178  00000+0  00000+0 0  9991",
        "tle_line2": "2 54742   0.0150  77.5837 0000399 207.9216 262.3232  1.00272293 10899"
      },
      "geometry": {
        "type": "Point",
        "coordinates": [
          -27.153534261681433,
          -0.008051617511127694
        ]
      }
    },
    {
      "type": "Feature",
      "properties": {
        "norad_id": 57493,
        "name": "GALAXY 37 (G-37)",
        "group": "intelsat",
        "lat": -0.022535913603556237,
        "lon": -65.14385539467263,
        "alt_km": 35778.13532916132,
        "timestamp": "2025-12-11T22:43:46.940028+00:00",
        "meta_object_name": "GALAXY 37 (G-37)",
        "meta_object_id": "2023-112A",
        "meta_epoch": "2025-12-11T14:37:08.698944",
        "meta_mean_motion": 1.0027129,
        "meta_eccentricity": 0.00021916,
        "meta_inclination": 0.0109,
        "meta_ra_of_asc_node": 21.1051,
        "meta_arg_of_pericenter": 244.2234,
        "meta_mean_anomaly": 267.5281,
        "meta_ephemeris_type": 0,
        "meta_classification_type": "U",
        "meta_norad_cat_id": 57493,
        "meta_element_set_no": 999,
        "meta_rev_at_epoch": 866,
        "meta_bstar": 0,
        "meta_mean_motion_dot": 5.5e-07,
        "meta_mean_motion_ddot": 0,
        "tle_line1": "1 57493U 23112A   25345.60912846  .00000055  00000+0  00000+0 0  9990",
        "tle_line2": "2 57493   0.0109  21.1051 0002191 244.2234 267.5281  1.00271290  8667"
      },
      "geometry": {
        "type": "Point",
        "coordinates": [
          -65.14385539467263,
          -0.022535913603556237
        ]
      }
    }
  ]
}